[Satellite]
VERSION=1.1
NAME=FLOCK 3P-57
NICKNAME=FLOCK 3P-57
TLE1=1 41978U 17008AG  18021.14281742  .00002830  00000-0  12041-3 0  9990
TLE2=2 41978  97.4694  86.7767 0009328 141.0022 219.1889 15.23809208 51555
